start=new Date('2023-03-08T00:00:00.000Z').valueOf();
sats=[{"ELEMENT_SET_NO":"999","GP_ID":"227673123","APOAPSIS":"548.015","FILE":"3854072","MEAN_MOTION_DDOT":"0.0000000000000","CENTER_NAME":"EARTH","REV_AT_EPOCH":"11532","NORAD_CAT_ID":"47555","OBJECT_ID":"2021-009H","PERIOD":"95.592","OBJECT_NAME":"STARLINK-1954","TLE_LINE1":"1 47555U 21009H   23066.82812514  .00016897  00000-0  11503-2 0  9999","ECCENTRICITY":"0.00011890","RCS_SIZE":"LARGE","EPHEMERIS_TYPE":"0","MEAN_ELEMENT_THEORY":"SGP4","ARG_OF_PERICENTER":"112.4752","MEAN_MOTION_DOT":"0.00016897","REF_FRAME":"TEME","CLASSIFICATION_TYPE":"U","MEAN_ANOMALY":"247.6362","TLE_LINE2":"2 47555  53.0523 270.1081 0001189 112.4752 247.6362 15.06407267115326","BSTAR":"0.00115030000000","COUNTRY_CODE":"US","PERIAPSIS":"546.368","OBJECT_TYPE":"PAYLOAD","RA_OF_ASC_NODE":"270.1081","EPOCH":"2023-03-07T19:52:30.012096","LAUNCH_DATE":"2021-02-04","MEAN_MOTION":"15.06407267","TIME_SYSTEM":"UTC","SITE":"AFETR","INCLINATION":"53.0523","SEMIMAJOR_AXIS":"6925.326","DECAY_DATE":null},{"DECAY_DATE":null,"INCLINATION":"53.0555","SEMIMAJOR_AXIS":"6925.315","SITE":"AFETR","MEAN_MOTION":"15.06411058","TIME_SYSTEM":"UTC","OBJECT_TYPE":"PAYLOAD","RA_OF_ASC_NODE":"293.5266","EPOCH":"2023-03-07T01:36:27.402912","LAUNCH_DATE":"2021-02-04","TLE_LINE2":"2 47556  53.0555 293.5266 0001119  92.8948 267.2169 15.06411058114928","BSTAR":"0.00127000000000","COUNTRY_CODE":"US","PERIAPSIS":"546.405","REF_FRAME":"TEME","CLASSIFICATION_TYPE":"U","MEAN_ANOMALY":"267.2169","ARG_OF_PERICENTER":"92.8948","MEAN_MOTION_DOT":"0.00018691","RCS_SIZE":"LARGE","EPHEMERIS_TYPE":"0","MEAN_ELEMENT_THEORY":"SGP4","OBJECT_NAME":"STARLINK-1955","TLE_LINE1":"1 47556U 21009J   23066.06698383  .00018691  00000-0  12700-2 0  9996","ECCENTRICITY":"0.00011190","NORAD_CAT_ID":"47556","OBJECT_ID":"2021-009J","PERIOD":"95.591","CENTER_NAME":"EARTH","MEAN_MOTION_DDOT":"0.0000000000000","REV_AT_EPOCH":"11492","GP_ID":"227673371","FILE":"3854072","APOAPSIS":"547.955","ELEMENT_SET_NO":"999"},{"SITE":"AFETR","SEMIMAJOR_AXIS":"6925.295","INCLINATION":"53.0539","DECAY_DATE":null,"CLASSIFICATION_TYPE":"U","MEAN_ANOMALY":"276.0691","REF_FRAME":"TEME","COUNTRY_CODE":"US","BSTAR":"0.00134650000000","PERIAPSIS":"546.036","TLE_LINE2":"2 47557  53.0539 289.8221 0001623  84.0483 276.0691 15.06417380115054","EPOCH":"2023-03-07T21:25:23.243232","LAUNCH_DATE":"2021-02-04","OBJECT_TYPE":"PAYLOAD","RA_OF_ASC_NODE":"289.8221","MEAN_MOTION":"15.06417380","TIME_SYSTEM":"UTC","PERIOD":"95.591","OBJECT_ID":"2021-009K","NORAD_CAT_ID":"47557","TLE_LINE1":"1 47557U 21009K   23066.89263013  .00019841  00000-0  13465-2 0  9993","OBJECT_NAME":"STARLINK-1956","ECCENTRICITY":"0.00016230","MEAN_ELEMENT_THEORY":"SGP4","RCS_SIZE":"LARGE","EPHEMERIS_TYPE":"0","MEAN_MOTION_DOT":"0.00019841","ARG_OF_PERICENTER":"84.0483","ELEMENT_SET_NO":"999","APOAPSIS":"548.284","FILE":"3854072","GP_ID":"227674109","REV_AT_EPOCH":"11505","CENTER_NAME":"EARTH","MEAN_MOTION_DDOT":"0.0000000000000"},{"FILE":"3854072","APOAPSIS":"548.181","GP_ID":"227672375","ELEMENT_SET_NO":"999","REV_AT_EPOCH":"11547","CENTER_NAME":"EARTH","MEAN_MOTION_DDOT":"0.0000000000000","ECCENTRICITY":"0.00014550","TLE_LINE1":"1 47558U 21009L   23066.93962198  .00008688  00000-0  60119-3 0  9995","OBJECT_NAME":"STARLINK-1957","PERIOD":"95.591","OBJECT_ID":"2021-009L","NORAD_CAT_ID":"47558","MEAN_MOTION_DOT":"0.00008688","ARG_OF_PERICENTER":"91.4665","MEAN_ELEMENT_THEORY":"SGP4","EPHEMERIS_TYPE":"0","RCS_SIZE":"LARGE","PERIAPSIS":"546.166","COUNTRY_CODE":"US","BSTAR":"0.00060119000000","TLE_LINE2":"2 47558  53.0504 259.6107 0001455  91.4665 268.6490 15.06412963115474","MEAN_ANOMALY":"268.6490","CLASSIFICATION_TYPE":"U","REF_FRAME":"TEME","TIME_SYSTEM":"UTC","MEAN_MOTION":"15.06412963","LAUNCH_DATE":"2021-02-04","EPOCH":"2023-03-07T22:33:03.339072","RA_OF_ASC_NODE":"259.6107","OBJECT_TYPE":"PAYLOAD","SEMIMAJOR_AXIS":"6925.309","INCLINATION":"53.0504","SITE":"AFETR","DECAY_DATE":null},{"DECAY_DATE":null,"SITE":"AFETR","INCLINATION":"53.0503","SEMIMAJOR_AXIS":"6925.331","OBJECT_TYPE":"PAYLOAD","RA_OF_ASC_NODE":"249.7733","EPOCH":"2023-03-07T21:41:18.579264","LAUNCH_DATE":"2021-02-04","TIME_SYSTEM":"UTC","MEAN_MOTION":"15.06405766","REF_FRAME":"TEME","CLASSIFICATION_TYPE":"U","MEAN_ANOMALY":"282.4453","TLE_LINE2":"2 47559  53.0503 249.7733 0001477  77.6701 282.4453 15.06405766115612","BSTAR":"0.00039320000000","COUNTRY_CODE":"US","PERIAPSIS":"546.173","RCS_SIZE":"LARGE","EPHEMERIS_TYPE":"0","MEAN_ELEMENT_THEORY":"SGP4","ARG_OF_PERICENTER":"77.6701","MEAN_MOTION_DOT":"0.00005581","NORAD_CAT_ID":"47559","PERIOD":"95.592","OBJECT_ID":"2021-009M","TLE_LINE1":"1 47559U 21009M   23066.90368726  .00005581  00000-0  39320-3 0  9999","OBJECT_NAME":"STARLINK-1958","ECCENTRICITY":"0.00014770","MEAN_MOTION_DDOT":"0.0000000000000","CENTER_NAME":"EARTH","REV_AT_EPOCH":"11561","ELEMENT_SET_NO":"999","GP_ID":"227672624","APOAPSIS":"548.219","FILE":"3854072"},{"SITE":"AFETR","INCLINATION":"53.0525","SEMIMAJOR_AXIS":"6925.327","DECAY_DATE":null,"REF_FRAME":"TEME","MEAN_ANOMALY":"258.0558","CLASSIFICATION_TYPE":"U","TLE_LINE2":"2 47560  53.0525 249.7946 0001145 102.0559 258.0558 15.06407075115610","PERIAPSIS":"546.399","COUNTRY_CODE":"US","BSTAR":"0.00023170000000","RA_OF_ASC_NODE":"249.7946","OBJECT_TYPE":"PAYLOAD","EPOCH":"2023-03-07T21:29:19.469472","LAUNCH_DATE":"2021-02-04","TIME_SYSTEM":"UTC","MEAN_MOTION":"15.06407075","NORAD_CAT_ID":"47560","OBJECT_ID":"2021-009N","PERIOD":"95.592","ECCENTRICITY":"0.00011450","TLE_LINE1":"1 47560U 21009N   23066.89536423  .00003172  00000-0  23170-3 0  9990","OBJECT_NAME":"STARLINK-1959","EPHEMERIS_TYPE":"0","RCS_SIZE":"LARGE","MEAN_ELEMENT_THEORY":"SGP4","ARG_OF_PERICENTER":"102.0559","MEAN_MOTION_DOT":"0.00003172","ELEMENT_SET_NO":"999","GP_ID":"227673871","APOAPSIS":"547.985","FILE":"3854072","CENTER_NAME":"EARTH","MEAN_MOTION_DDOT":"0.0000000000000","REV_AT_EPOCH":"11561"},{"EPOCH":"2023-03-07T19:36:34.919712","LAUNCH_DATE":"2021-02-04","RA_OF_ASC_NODE":"270.1595","OBJECT_TYPE":"PAYLOAD","TIME_SYSTEM":"UTC","MEAN_MOTION":"15.06394174","MEAN_ANOMALY":"274.6157","CLASSIFICATION_TYPE":"U","REF_FRAME":"TEME","PERIAPSIS":"546.787","BSTAR":"-0.00000403260000","COUNTRY_CODE":"US","TLE_LINE2":"2 47561  53.0529 270.1595 0000642  85.4905 274.6157 15.06394174115325","DECAY_DATE":null,"SITE":"AFETR","SEMIMAJOR_AXIS":"6925.366","INCLINATION":"53.0529","REV_AT_EPOCH":"11532","CENTER_NAME":"EARTH","MEAN_MOTION_DDOT":"0.0000000000000","ELEMENT_SET_NO":"999","FILE":"3854072","APOAPSIS":"547.676","GP_ID":"227673610","MEAN_ELEMENT_THEORY":"SGP4","EPHEMERIS_TYPE":"0","RCS_SIZE":"LARGE","MEAN_MOTION_DOT":"-0.00000341","ARG_OF_PERICENTER":"85.4905","PERIOD":"95.593","OBJECT_ID":"2021-009P","NORAD_CAT_ID":"47561","ECCENTRICITY":"0.00006420","OBJECT_NAME":"STARLINK-1960","TLE_LINE1":"1 47561U 21009P   23066.81707083 -.00000341  00000-0 -40326-5 0  9996"},{"PERIAPSIS":"546.690","BSTAR":"0.00063671000000","COUNTRY_CODE":"US","TLE_LINE2":"2 47562  53.0515 270.0949 0000675  95.7101 264.3965 15.06418406115329","MEAN_ANOMALY":"264.3965","CLASSIFICATION_TYPE":"U","REF_FRAME":"TEME","MEAN_MOTION":"15.06418406","TIME_SYSTEM":"UTC","LAUNCH_DATE":"2021-02-04","EPOCH":"2023-03-07T19:57:48.419424","RA_OF_ASC_NODE":"270.0949","OBJECT_TYPE":"PAYLOAD","SEMIMAJOR_AXIS":"6925.292","INCLINATION":"53.0515","SITE":"AFETR","DECAY_DATE":null,"APOAPSIS":"547.625","FILE":"3854072","GP_ID":"227672875","ELEMENT_SET_NO":"999","REV_AT_EPOCH":"11532","MEAN_MOTION_DDOT":"0.0000000000000","CENTER_NAME":"EARTH","ECCENTRICITY":"0.00006750","OBJECT_NAME":"STARLINK-1961","TLE_LINE1":"1 47562U 21009Q   23066.83181041  .00009220  00000-0  63671-3 0  9998","PERIOD":"95.591","OBJECT_ID":"2021-009Q","NORAD_CAT_ID":"47562","MEAN_MOTION_DOT":"0.00009220","ARG_OF_PERICENTER":"95.7101","MEAN_ELEMENT_THEORY":"SGP4","EPHEMERIS_TYPE":"0","RCS_SIZE":"LARGE"},{"REF_FRAME":"TEME","MEAN_ANOMALY":"267.0088","CLASSIFICATION_TYPE":"U","TLE_LINE2":"2 47563  53.0505 269.9977 0001213  93.1040 267.0088 15.06408572115329","PERIAPSIS":"546.347","BSTAR":"0.00131720000000","COUNTRY_CODE":"US","RA_OF_ASC_NODE":"269.9977","OBJECT_TYPE":"PAYLOAD","EPOCH":"2023-03-07T20:29:39.078528","LAUNCH_DATE":"2021-02-04","MEAN_MOTION":"15.06408572","TIME_SYSTEM":"UTC","SITE":"AFETR","INCLINATION":"53.0505","SEMIMAJOR_AXIS":"6925.322","DECAY_DATE":null,"ELEMENT_SET_NO":"999","GP_ID":"227673124","FILE":"3854072","APOAPSIS":"548.027","MEAN_MOTION_DDOT":"0.0000000000000","CENTER_NAME":"EARTH","REV_AT_EPOCH":"11532","NORAD_CAT_ID":"47563","OBJECT_ID":"2021-009R","PERIOD":"95.592","ECCENTRICITY":"0.00012130","OBJECT_NAME":"STARLINK-1962","TLE_LINE1":"1 47563U 21009R   23066.85392452  .00019397  00000-0  13172-2 0  9997","EPHEMERIS_TYPE":"0","RCS_SIZE":"LARGE","MEAN_ELEMENT_THEORY":"SGP4","ARG_OF_PERICENTER":"93.1040","MEAN_MOTION_DOT":"0.00019397"},{"OBJECT_TYPE":"PAYLOAD","RA_OF_ASC_NODE":"259.6945","EPOCH":"2023-03-07T22:06:30.736512","LAUNCH_DATE":"2021-02-04","MEAN_MOTION":"15.06411992","TIME_SYSTEM":"UTC","REF_FRAME":"TEME","CLASSIFICATION_TYPE":"U","MEAN_ANOMALY":"271.5284","TLE_LINE2":"2 47564  53.0503 259.6945 0000991  88.5818 271.5284 15.06411992115476","COUNTRY_CODE":"US","BSTAR":"0.00032857000000","PERIAPSIS":"546.491","DECAY_DATE":null,"SITE":"AFETR","INCLINATION":"53.0503","SEMIMAJOR_AXIS":"6925.312","CENTER_NAME":"EARTH","MEAN_MOTION_DDOT":"0.0000000000000","REV_AT_EPOCH":"11547","ELEMENT_SET_NO":"999","GP_ID":"227673372","FILE":"3854072","APOAPSIS":"547.863","RCS_SIZE":"LARGE","EPHEMERIS_TYPE":"0","MEAN_ELEMENT_THEORY":"SGP4","ARG_OF_PERICENTER":"88.5818","MEAN_MOTION_DOT":"0.00004618","NORAD_CAT_ID":"47564","PERIOD":"95.591","OBJECT_ID":"2021-009S","OBJECT_NAME":"STARLINK-1963","TLE_LINE1":"1 47564U 21009S   23066.92118908  .00004618  00000-0  32857-3 0  9990","ECCENTRICITY":"0.00009910"}];
